CARTOSAT-2A             
1 32783U 08021A   21310.51369274  .00000167  00000-0  29973-4 0  9996
2 32783  97.9905   7.6933 0013336 161.2176 198.9542 14.78642697730071
CUTE-1.7+APD II (CO-65) 
1 32785U 08021C   21310.41476214  .00001028  00000-0  11513-3 0  9997
2 32785  97.6290 283.8850 0011426 251.1740 108.8239 14.88879455733360
AAUSAT-II               
1 32788U 08021F   21309.91370725  .00002755  00000-0  25073-3 0  9997
2 32788  97.5154 298.7421 0012458 148.1193 212.0785 14.95910269735007
DELFI-C3 (DO-64)        
1 32789U 08021G   21310.35593337  .00005522  00000-0  34485-3 0  9996
2 32789  97.3638 340.2256 0011897  22.9381 337.2377 15.09808659738337
CANX-2                  
1 32790U 08021H   21310.40429280  .00000887  00000-0  10107-3 0  9993
2 32790  97.6389 282.3698 0012099 256.8424 103.1443 14.88499032733259
SEEDS II (CO-66)        
1 32791U 08021J   21310.38775045  .00001333  00000-0  13794-3 0  9996
2 32791  97.5871 289.6207 0012190 207.7717 152.2853 14.91631407734016
AMOS-3                  
1 32794U 08022A   21310.31497289 -.00000028  00000-0  00000+0 0  9997
2 32794   0.0441  98.6052 0002735  83.1154 333.3268  1.00272371 49560
GALAXY 18 (G-18)        
1 32951U 08024A   21310.44893851  .00000031  00000-0  00000+0 0  9996
2 32951   0.0182 277.1540 0002787 300.0882 227.2879  1.00271077 49201
YUBILEINY (RS-30)       
1 32953U 08025A   21310.44143603  .00000021  00000-0  80971-4 0  9991
2 32953  82.5029 322.6298 0020059  30.7943 329.4312 12.43105503610627
COSMOS 2437             
1 32954U 08025B   21310.15155992  .00000026  00000-0  11906-3 0  9990
2 32954  82.5010 324.2805 0021657  44.6388 315.6440 12.42712319610427
COSMOS 2438             
1 32955U 08025C   21310.16783605  .00000031  00000-0  15458-3 0  9992
2 32955  82.5010 320.8080 0021779  24.6796 335.5327 12.43316755610724
COSMOS 2439             
1 32956U 08025D   21310.14191972  .00000036  00000-0  18586-3 0  9991
2 32956  82.5063 324.5256 0021456  34.3119 325.9349 12.43018520610577
FENGYUN 3A              
1 32958U 08026A   21310.31933081  .00000036  00000-0  37425-4 0  9992
2 32958  98.4702 277.4847 0007956 314.5982  45.4545 14.18674556696697
CHINASAT 9 (ZX 9)       
1 33051U 08028A   21310.28471150 -.00000241  00000-0  00000-0 0  9993
2 33051   0.0131 258.0708 0003702 333.8351   8.5088  1.00269527 49157
FGRST (GLAST)           
1 33053U 08029A   21310.21310125  .00001283  00000-0  56386-4 0  9991
2 33053  25.5823 248.6738 0012548 113.6904 246.4949 15.11656032739875
SKYNET 5C               
1 33055U 08030A   21310.26021487 -.00000133  00000-0  00000-0 0  9992
2 33055   0.0703 348.1802 0003830 231.7319 261.6460  1.00272631 49071
TURKSAT 3A              
1 33056U 08030B   21310.18056962  .00000153  00000-0  00000-0 0  9991
2 33056   0.0683  86.0048 0003556 106.0479 320.5975  1.00268108 35474
INTELSAT 25 (IS-25)     
1 33153U 08034A   21310.38125876 -.00000218  00000-0  00000+0 0  9998
2 33153   0.0139 183.2123 0002588  29.5509 298.8357  1.00270264 48751
BADR-6                  
1 33154U 08034B   21310.22965795  .00000151  00000-0  00000-0 0  9990
2 33154   0.0649  57.4536 0002373 195.0373 261.8934  1.00268638 48874
ECHOSTAR 11             
1 33207U 08035A   21310.29286340 -.00000050  00000-0  00000-0 0  9998
2 33207   0.0108 313.9069 0002526 266.7859 180.4824  1.00270420 34342
SUPERBIRD-C2            
1 33274U 08038A   21310.41623328 -.00000244  00000-0  00000+0 0  9994
2 33274   0.0295 129.9456 0001786 101.2074 108.5236  1.00272035 48502
AMC-21                  
1 33275U 08038B   21310.44787800  .00000042  00000-0  00000+0 0  9999
2 33275   0.0222 305.3960 0002464 284.8691 211.9817  1.00270609 48587
INMARSAT 4-F3           
1 33278U 08039A   21310.30183694 -.00000134  00000-0  00000-0 0  9993
2 33278   3.2441  17.5006 0002996 210.9407 187.9835  1.00271933 29678
HUANJING 1A (HJ-1A)     
1 33320U 08041A   21310.51363866  .00000207  00000-0  35712-4 0  9990
2 33320  97.7068 348.6977 0019929 234.1295 125.8071 14.77693569709467
HUANJING 1B (HJ-1B)     
1 33321U 08041B   21310.49960486  .00001160  00000-0  16838-3 0  9995
2 33321  97.7266 351.7940 0033338 253.5480 106.2069 14.77459440709462
GEOEYE 1                
1 33331U 08042A   21310.48068765  .00000323  00000-0  70180-4 0  9996
2 33331  98.1384  23.4070 0007646 253.0867 106.9500 14.64371707703739
NIMIQ 4                 
1 33373U 08044A   21310.44301715 -.00000215  00000-0  00000+0 0  9995
2 33373   0.0229 287.0014 0002113 299.9156 256.4634  1.00273759 47953
GALAXY 19 (G-19)        
1 33376U 08045A   21310.30611550 -.00000133  00000-0  00000-0 0  9995
2 33376   0.0194 276.4916 0003007 311.9462 190.5275  1.00271567 48010
THEOS                   
1 33396U 08049A   21310.44839120  .00000170  00000-0  10000-3 0  9995
2 33396  98.6760  15.3836 0001326  95.4415  98.6473 14.20056179679013
SJ-6E                   
1 33408U 08053A   21310.25293031  .00001675  00000-0  15944-3 0  9991
2 33408  97.8275 289.0405 0016787 299.9804  59.9743 14.94695473710148
SJ-6F                   
1 33409U 08053B   21310.50904865  .00001181  00000-0  11275-3 0  9999
2 33409  97.8077 290.1608 0014424 255.8978 104.0613 14.95160952710537
COSMO-SKYMED 3          
1 33412U 08054A   21310.49898184 -.00001023  00000-0 -12205-3 0  9999
2 33412  97.8905 132.4090 0001344  88.8486 271.2896 14.82146804705146
SHIYAN 3 (SY-3)         
1 33433U 08056A   21310.47951146 -.00000036  00000-0  32933-5 0  9994
2 33433  98.7051 317.1422 0014172  38.7743 321.4450 14.29820937678527
CHUANGXIN 1-02 (CX-1-02)
1 33434U 08056B   21310.50769524 -.00000051  00000-0 -25797-5 0  9994
2 33434  98.7104 316.9311 0015083  38.7172 321.5094 14.29495191678412
ASTRA 1M                
1 33436U 08057A   21310.23521490  .00000127  00000-0  00000-0 0  9992
2 33436   0.0717  96.7391 0003930  84.0070 328.8069  1.00273086 28840
YAOGAN 4                
1 33446U 08061A   21310.39592464  .00000286  00000-0  47374-4 0  9999
2 33446  97.7910 252.6838 0017274 133.1909 227.0748 14.77167100696663
CIEL-2                  
1 33453U 08063A   21310.27698333  .00000065  00000-0  00000-0 0  9994
2 33453   0.0536  98.6513 0002624 127.2955 150.6494  1.00271136 47259
EUTELSAT HOTBIRD 13C    
1 33459U 08065A   21310.31837441  .00000093  00000-0  00000+0 0  9992
2 33459   0.0821  68.8388 0003040 122.6519 341.8960  1.00270257 47366
EUTELSAT 48D            
1 33460U 08065B   21310.26509375 -.00000093  00000-0  00000-0 0  9992
2 33460   0.8990  95.2257 0003234 126.9255 266.5074  1.00271365 47079
FENGYUN 2E              
1 33463U 08066A   21309.79216166 -.00000195  00000-0  00000-0 0  9998
2 33463   5.4146  66.5007 0003026 328.9094  21.5653  1.00276002 47192
GOSAT (IBUKI)           
1 33492U 09002A   21310.32241537  .00000333  00000-0  67286-4 0  9998
2 33492  98.1002  60.3799 0000970  93.9882 266.1434 14.67532572684952
STARS (KUKAI)           
1 33498U 09002G   21310.29697454  .00000834  00000-0  11891-3 0  9999
2 33498  98.1919 193.2488 0009558 248.7080 111.3111 14.79474965688857
KKS-1 (KISEKI)          
1 33499U 09002H   21310.38862520  .00000454  00000-0  74208-4 0  9998
2 33499  98.2453 183.3517 0008162 314.4696  45.5845 14.75730923687776
NOAA 19                 
1 33591U 09005A   21310.50621034  .00000088  00000-0  72806-4 0  9996
2 33591  99.1744 334.6751 0014880  94.0915 266.1957 14.12506248656977
EXPRESS-AM44            
1 33595U 09007A   21310.60052543 -.00000083  00000-0  00000+0 0  9994
2 33595   0.0092 278.0601 0000578 334.5560 358.6365  1.00270916 46673
NSS-9                   
1 33749U 09008A   21310.29578307  .00000078  00000-0  00000-0 0  9996
2 33749   0.0241   7.7662 0002094 212.5883 114.9377  1.00271163 46640
EUTELSAT 33E            
1 33750U 09008B   21310.37132807  .00000162  00000-0  00000+0 0  9991
2 33750   0.0645  33.5918 0003820 187.2369 351.7822  1.00273551 46713
SPIRALE A               
1 33751U 09008C   21310.08564845  .00000084  00000-0  41469-3 0  9992
2 33751   2.0562 102.0196 5400651 190.6852 150.2836  4.58808478184557
SPIRALE B               
1 33752U 09008D   21310.14690592  .00001720  00000-0  57822-3 0  9997
2 33752   1.7933 243.9874 6871140 263.7971  20.9356  2.79735575118818
TELSTAR 11N             
1 34111U 09009A   21310.27132619 -.00000244  00000-0  00000-0 0  9997
2 34111   0.0143 278.2558 0002023 290.9804 256.6232  1.00269489 29350
NAVSTAR 63 (USA 203)    
1 34661U 09014A   21309.59632867 -.00000012  00000-0  00000-0 0  9999
2 34661  55.2122 278.2955 0116567  54.4042 125.6750  2.00563112 92492
EUTELSAT 10A            
1 34710U 09016A   21310.38243664  .00000075  00000-0  00000+0 0  9995
2 34710   0.0705  22.6970 0005452 201.1337 329.6794  1.00272444 46080
WGS F2 (USA 204)        
1 34713U 09017A   21310.18370946  .00000074  00000-0  00000-0 0  9991
2 34713   0.0105 263.4762 0000331 154.2130 111.6027  1.00272221 28734
RISAT 2                 
1 34807U 09019A   21310.50900928  .00032837  00000-0  61854-3 0  9991
2 34807  41.2097 166.5370 0006443 327.4985 108.4665 15.47811062705186
YAOGAN 6                
1 34839U 09021A   21310.23230720  .00002909  00000-0  10825-3 0  9994
2 34839  97.0610 296.5889 0027721  18.2350 341.9877 15.27891920697136
SES-7 (PROTOSTAR 2)     
1 34941U 09027A   21310.40916860 -.00000339  00000-0  00000+0 0  9995
2 34941   0.0632  85.7284 0001685 169.1721  46.5225  1.00272079 45725
MEASAT-3A               
1 35362U 09032A   21310.04692998 -.00000235  00000-0  00000-0 0  9998
2 35362   0.0291 214.4581 0003173   7.5922 291.8426  1.00273475 45366
GOES 14                 
1 35491U 09033A   21310.57005455 -.00000088  00000-0  00000+0 0  9991
2 35491   0.2595 283.6474 0015712 294.4637 288.8820  1.00270649 45273
FM-5                    
1 35493U 09034A   21310.29887191 -.00000194  00000-0  00000-0 0  9997
2 35493   0.0211 295.8664 0000991 128.8707   2.4752  1.00270558 29753
